[{"OBJECT_NAME":"ONEWEB-0620","OBJECT_ID":"2023-004X","EPOCH":"2026-03-09T22:51:28.891008","MEAN_MOTION":13.11417395,"ECCENTRICITY":0.00021399,"INCLINATION":87.8859,"RA_OF_ASC_NODE":40.8095,"ARG_OF_PERICENTER":80.0166,"MEAN_ANOMALY":280.1204,"EPHEMERIS_TYPE":0,"CLASSIFICATION_TYPE":"U","NORAD_CAT_ID":55161,"ELEMENT_SET_NO":999,"REV_AT_EPOCH":15282,"BSTAR":-0.0011976443,"MEAN_MOTION_DOT":-4.12e-6,"MEAN_MOTION_DDOT":0},{"OBJECT_NAME":"COSMOS 397 DEB","OBJECT_ID":"1971-015AT","EPOCH":"2026-03-09T19:56:58.776576","MEAN_MOTION":13.47529832,"ECCENTRICITY":0.06936253,"INCLINATION":65.535,"RA_OF_ASC_NODE":288.7832,"ARG_OF_PERICENTER":42.307,"MEAN_ANOMALY":322.9384,"EPHEMERIS_TYPE":0,"CLASSIFICATION_TYPE":"U","NORAD_CAT_ID":5197,"ELEMENT_SET_NO":999,"REV_AT_EPOCH":62041,"BSTAR":0.0012341433,"MEAN_MOTION_DOT":3.357e-5,"MEAN_MOTION_DDOT":0}]
